[{"OBJECT_NAME":"STARLINK-2751","OBJECT_ID":"2021-044AZ","EPOCH":"2026-03-09T07:14:48.501600","MEAN_MOTION":15.30224825,"ECCENTRICITY":0.00015992,"INCLINATION":53.1611,"RA_OF_ASC_NODE":66.7384,"ARG_OF_PERICENTER":90.4191,"MEAN_ANOMALY":269.6993,"EPHEMERIS_TYPE":0,"CLASSIFICATION_TYPE":"U","NORAD_CAT_ID":48685,"ELEMENT_SET_NO":999,"REV_AT_EPOCH":26445,"BSTAR":0.00037077914,"MEAN_MOTION_DOT":0.00010646,"MEAN_MOTION_DDOT":0},{"OBJECT_NAME":"OBJECT H","OBJECT_ID":"2025-055H","EPOCH":"2026-03-09T23:29:50.051328","MEAN_MOTION":15.30330066,"ECCENTRICITY":0.00075967,"INCLINATION":97.636,"RA_OF_ASC_NODE":211.9572,"ARG_OF_PERICENTER":140.4354,"MEAN_ANOMALY":219.7441,"EPHEMERIS_TYPE":0,"CLASSIFICATION_TYPE":"U","NORAD_CAT_ID":63298,"ELEMENT_SET_NO":999,"REV_AT_EPOCH":5423,"BSTAR":0.0015582864,"MEAN_MOTION_DOT":0.00045901,"MEAN_MOTION_DDOT":0}]
